[{"OBJECT_NAME":"YAOGAN-31 03A","OBJECT_ID":"2021-014A","EPOCH":"2026-03-10T00:24:06.247008","MEAN_MOTION":13.45441662,"ECCENTRICITY":0.01684055,"INCLINATION":63.4026,"RA_OF_ASC_NODE":92.704,"ARG_OF_PERICENTER":0.2198,"MEAN_ANOMALY":359.8873,"EPHEMERIS_TYPE":0,"CLASSIFICATION_TYPE":"U","NORAD_CAT_ID":47691,"ELEMENT_SET_NO":999,"REV_AT_EPOCH":24743,"BSTAR":0.00052010805,"MEAN_MOTION_DOT":2.46e-6,"MEAN_MOTION_DDOT":0},{"OBJECT_NAME":"ONEWEB-0235","OBJECT_ID":"2021-045E","EPOCH":"2026-03-09T15:29:15.246240","MEAN_MOTION":13.15547847,"ECCENTRICITY":0.0001855,"INCLINATION":87.8947,"RA_OF_ASC_NODE":279.0605,"ARG_OF_PERICENTER":105.0681,"MEAN_ANOMALY":255.0654,"EPHEMERIS_TYPE":0,"CLASSIFICATION_TYPE":"U","NORAD_CAT_ID":48771,"ELEMENT_SET_NO":999,"REV_AT_EPOCH":23129,"BSTAR":0.00039853,"MEAN_MOTION_DOT":1.63e-6,"MEAN_MOTION_DDOT":0}]
